GSAT0101 (PRN E11)      
1 37846U 11060A   22279.11657602 -.00000101  00000+0  00000+0 0  9997
2 37846  57.0335  18.3337 0000804  64.2256 295.7936  1.70474807 68109
GSAT0102 (PRN E12)      
1 37847U 11060B   22276.71372412 -.00000090  00000+0  00000+0 0  9991
2 37847  57.0340  18.3987 0001499 309.5111  62.6338  1.70475167 68076
GSAT0103 (PRN E19)      
1 38857U 12055A   22277.98269172  .00000032  00000+0  00000+0 0  9991
2 38857  55.1662 138.6870 0002058 248.7885 111.2853  1.70473650 61975
GSAT0104 (PRN E20)      
1 38858U 12055B   22279.12581043  .00000037  00000+0  00000+0 0  9999
2 38858  55.1669 138.6571 0001058 135.5814 224.5277  1.70473926 61991
GSAT0201 (PRN E18)      
1 40128U 14050A   22280.32111341 -.00000075  00000+0  00000+0 0  9996
2 40128  50.2061 327.8244 1619622 128.1181 247.6345  1.85519138 53291
GSAT0202 (PRN E14)      
1 40129U 14050B   22280.04272793 -.00000071  00000+0  00000+0 0  9991
2 40129  50.2298 326.8993 1616749 128.9184 246.6544  1.85519782 55457
GSAT0203 (PRN E26)      
1 40544U 15017A   22279.48307598 -.00000102  00000+0  00000+0 0  9999
2 40544  56.8289  18.3418 0003759 227.9020 132.0769  1.70476063 46190
GSAT0204 (PRN E22)      
1 40545U 15017B   22279.73604995 -.00000103  00000+0  00000+0 0  9990
2 40545  56.8350  18.3478 0003985 212.5619 147.4243  1.70475669  9244
GSAT0205 (PRN E24)      
1 40889U 15045A   22279.50338060 -.00000001  00000+0  00000+0 0  9991
2 40889  55.5571 258.8945 0004303 352.5158   7.4536  1.70473030 44007
GSAT0206 (PRN E30)      
1 40890U 15045B   22280.31071606 -.00000008  00000+0  00000+0 0  9991
2 40890  55.5562 258.8679 0003216 328.3811  31.5696  1.70473105 44044
GSAT0209 (PRN E09)      
1 41174U 15079A   22279.89828623  .00000041  00000+0  00000+0 0  9990
2 41174  55.1838 138.3387 0002410 338.2366  21.8571  1.70474072 41775
GSAT0208 (PRN E08)      
1 41175U 15079B   22278.35801776  .00000034  00000+0  00000+0 0  9993
2 41175  55.1816 138.3796 0001865 348.7820  11.3111  1.70473968 42161
GSAT0211 (PRN E02)      
1 41549U 16030A   22280.23652954 -.00000007  00000+0  00000+0 0  9999
2 41549  55.7015 258.8149 0004735 311.9846  47.9456  1.70474593 39676
GSAT0210 (PRN E01)      
1 41550U 16030B   22278.18280809  .00000013  00000+0  00000+0 0  9994
2 41550  55.7026 258.8727 0004564 284.1200  75.8136  1.70474569 39631
GSAT0207 (PRN E07)      
1 41859U 16069A   22280.19212977  .00000041  00000+0  00000+0 0  9994
2 41859  54.8448 138.4842 0002142 311.6660  48.4206  1.70472754 36408
GSAT0212 (PRN E03)      
1 41860U 16069B   22280.04553993  .00000040  00000+0  00000+0 0  9995
2 41860  54.8419 138.4856 0001919  11.9093 348.1997  1.70472747 36650
GSAT0213 (PRN E04)      
1 41861U 16069C   22276.89129383  .00000029  00000+0  00000+0 0  9993
2 41861  54.8432 138.5785 0001893 265.3903  94.6808  1.70472870 36464
GSAT0214 (PRN E05)      
1 41862U 16069D   22279.97140504  .00000040  00000+0  00000+0 0  9997
2 41862  54.8428 138.4876 0000978 274.2140  85.8789  1.70472810 36649
GSAT0215 (PRN E21)      
1 43055U 17079A   22279.28793206  .00000001  00000+0  00000+0 0  9999
2 43055  55.6781 258.6718 0003967 280.3036  79.6287  1.70473741 29975
GSAT0216 (PRN E25)      
1 43056U 17079B   22277.23375222  .00000022  00000+0  00000+0 0  9990
2 43056  55.6799 258.7280 0005705 280.6588  79.2651  1.70473911 29955
GSAT0217 (PRN E27)      
1 43057U 17079C   22277.45401792  .00000020  00000+0  00000+0 0  9995
2 43057  55.6779 258.7215 0005198 290.8486  69.0831  1.70473893 29943
GSAT0218 (PRN E31)      
1 43058U 17079D   22279.43379464  .00000000  00000+0  00000+0 0  9994
2 43058  55.6766 258.6645 0006080 278.0343  81.8726  1.70473889 30006
GSAT0221 (PRN E15)      
1 43564U 18060A   22277.57289016 -.00000094  00000+0  00000+0 0  9997
2 43564  57.2105  18.2373 0003488 250.0565 109.9197  1.70476016 26123
GSAT0222 (PRN E33)      
1 43565U 18060B   22275.44643625 -.00000084  00000+0  00000+0 0  9991
2 43565  57.2120  18.2954 0002892 255.9579 104.0286  1.70475939 26132
GSAT0219 (PRN E36)      
1 43566U 18060C   22279.77304929 -.00000103  00000+0  00000+0 0  9995
2 43566  57.2135  18.1805 0002598 253.4788 106.5036  1.70476045 26185
GSAT0220 (PRN E13)      
1 43567U 18060D   22278.82008489 -.00000100  00000+0  00000+0 0  9990
2 43567  57.2130  18.2064 0002864 248.8534 111.1275  1.70475655 26152
GSAT0223                
1 49809U 21116A   22275.77817365 -.00000085  00000+0  00000+0 0  9995
2 49809  57.2044  18.1868 0003486 179.1833 203.9884  1.70475880  5110
GSAT0224                
1 49810U 21116B   22276.75500344 -.00000090  00000+0  00000+0 0  9998
2 49810  57.2058  18.1583 0002884 174.0534 201.0949  1.70475842  5157
